GLOBALSTAR M024         
1 25883U 99043A   26019.64481075  .00000004  00000+0  24432-2 0  9994
2 25883  51.9990 252.2193 0002563  81.5315 312.6232 11.10166705138902
GLOBALSTAR M027         
1 25884U 99043B   26019.54911552 -.00000080  00000+0 -62229-3 0  9995
2 25884  52.0248 336.5459 0021536 341.4624  18.5383 11.04372725165143
GLOBALSTAR M054         
1 25885U 99043C   26019.61272482 -.00000115  00000+0 -11128-2 0  9996
2 25885  52.0149  67.3797 0005127 186.3867 344.2583 11.39223810143719
GLOBALSTAR M053         
1 25886U 99043D   26019.47035031 -.00000050  00000+0  54932-3 0  9996
2 25886  52.0006  26.8161 0003469  91.9109  65.6377 11.27669438143840
GLOBALSTAR M058         
1 25907U 99049A   26019.60359693 -.00000044  00000+0  54375-3 0  9998
2 25907  51.9923 251.2837 0001994 354.0413   6.0397 11.93207320567376
GLOBALSTAR M050         
1 25908U 99049B   26019.59270612  .00000025  00000+0  12826-2 0  9992
2 25908  51.9970 242.8201 0010105  99.9784 276.3022 12.07464966174334
GLOBALSTAR M033         
1 25909U 99049C   26019.59054278  .00000063  00000+0  14828-2 0  9997
2 25909  51.9912  99.7108 0013778 351.8478   8.2144 12.20298782562160
GLOBALSTAR M055         
1 25910U 99049D   26019.59643922 -.00000071  00000+0  19583-3 0  9993
2 25910  52.0022  99.9016 0006979 215.1811 144.8580 12.29439363194909
